ONEWEB-0012             
1 44057U 19010A   23249.76924670 -.00000054  00000+0 -17504-3 0  9992
2 44057  87.8994  70.7183 0002526 108.6166 251.5239 13.16593539218087
ONEWEB-0010             
1 44058U 19010B   23250.32653610 -.00000413  00000+0 -11148-2 0  9996
2 44058  87.8984  70.5924 0002450  88.4101 271.7311 13.16592983218232
ONEWEB-0008             
1 44059U 19010C   23249.81990610  .00000090  00000+0  20136-3 0  9990
2 44059  87.8993  70.6866 0001530  91.5762 268.5544 13.16595325218252
ONEWEB-0007             
1 44060U 19010D   23249.88614577  .00000131  00000+0  31442-3 0  9992
2 44060  87.8948 101.1559 0002016  95.1126 265.0234 13.15546468218012
ONEWEB-0006             
1 44061U 19010E   23249.87344235 -.00000012  00000+0 -65900-4 0  9990
2 44061  87.8948 101.1616 0002068  87.9338 272.2029 13.15550390218064
ONEWEB-0011             
1 44062U 19010F   23249.55656140 -.00000040  00000+0 -14045-3 0  9991
2 44062  87.8957 101.2254 0001424  89.7608 270.3686 13.15550077218047
ONEWEB-0013             
1 45131U 20008A   23250.00626600  .00000707  00000+0  20190-2 0  9993
2 45131  87.9095 256.2631 0001770 120.9783 239.1518 13.09385380174106
ONEWEB-0017             
1 45132U 20008B   23250.35463706  .00004568  00000+0  13035-1 0  9996
2 45132  87.8815 237.6047 0001987  83.7474 276.3880 13.10410488175941
